<gpx xmlns="http://www.topografix.com/GPX/1/1" xmlns:xsi="http://www.w3.org/2001/XMLSchema-instance" xsi:schemaLocation="http://www.topografix.com/GPX/1/1 http://www.topografix.com/GPX/1/1/gpx.xsd https://topomapviewer.ngi.be/xmlschemas/tracegpxextensions/v1_1 https://common.ngi.be/static/xmlschemas/tmv_trace_gpxextensions_v1_1.xsd" xmlns:tmv="https://topomapviewer.ngi.be/xmlschemas/tracegpxextensions/v1_1" version="1.1" creator="NGI-IGN BE">
	<metadata>
		<name>Merel_2 (2)</name>
		<desc>Testroute 2, meer naar zuiden</desc>
		<time>2026-06-25T20:07:19.343Z</time>
	</metadata>
	<trk>
		<name>Merel_2 (2)</name>
		<desc>Testroute 2, meer naar zuiden</desc>
		<trkseg>
			<trkpt lat="49.89954999998852" lon="5.02672"/>
			<trkpt lat="49.89955999998851" lon="5.02668"/>
			<trkpt lat="49.899539999988505" lon="5.02657"/>
			<trkpt lat="49.89949999998852" lon="5.02646"/>
			<trkpt lat="49.899569999988515" lon="5.026500000000001"/>
			<trkpt lat="49.89955999998851" lon="5.026419999999999"/>
			<trkpt lat="49.89954999998852" lon="5.02614"/>
			<trkpt lat="49.89960999998852" lon="5.02579"/>
			<trkpt lat="49.8996599999885" lon="5.02562"/>
			<trkpt lat="49.900139999988525" lon="5.02605"/>
			<trkpt lat="49.90014999998852" lon="5.025990000000001"/>
			<trkpt lat="49.90040999998851" lon="5.025479999999999"/>
			<trkpt lat="49.90052999998851" lon="5.025219999999999"/>
			<trkpt lat="49.90060999998851" lon="5.024989999999999"/>
			<trkpt lat="49.900699999988504" lon="5.02461"/>
			<trkpt lat="49.90079999998852" lon="5.0243199999999995"/>
			<trkpt lat="49.90098999998852" lon="5.023990000000001"/>
			<trkpt lat="49.90107999998852" lon="5.023860000000001"/>
			<trkpt lat="49.90118999998851" lon="5.02376"/>
			<trkpt lat="49.901539999988515" lon="5.023560000000001"/>
			<trkpt lat="49.90172999998851" lon="5.023430000000001"/>
			<trkpt lat="49.90186999998852" lon="5.02332"/>
			<trkpt lat="49.90229999998852" lon="5.022900000000001"/>
			<trkpt lat="49.9026099999885" lon="5.022690000000001"/>
			<trkpt lat="49.90296999998852" lon="5.0225100000000005"/>
			<trkpt lat="49.903089999988524" lon="5.022470000000001"/>
			<trkpt lat="49.90345999998852" lon="5.02231"/>
			<trkpt lat="49.90366999998852" lon="5.02219"/>
			<trkpt lat="49.90375999998852" lon="5.022109999999999"/>
			<trkpt lat="49.903789999988525" lon="5.022070000000001"/>
			<trkpt lat="49.903829999988524" lon="5.02199"/>
			<trkpt lat="49.903849999988516" lon="5.021919999999999"/>
			<trkpt lat="49.903879999988526" lon="5.021739999999999"/>
			<trkpt lat="49.90388999998852" lon="5.02156"/>
			<trkpt lat="49.903899999988525" lon="5.021240000000001"/>
			<trkpt lat="49.903899999988525" lon="5.0203"/>
			<trkpt lat="49.903889999988515" lon="5.02023"/>
			<trkpt lat="49.90386999998852" lon="5.01956"/>
			<trkpt lat="49.90388999998852" lon="5.019279999999999"/>
			<trkpt lat="49.90391999998852" lon="5.019190000000001"/>
			<trkpt lat="49.903969999988526" lon="5.019090000000001"/>
			<trkpt lat="49.90404999998851" lon="5.018980000000001"/>
			<trkpt lat="49.90408999998852" lon="5.018880000000001"/>
			<trkpt lat="49.90418999998853" lon="5.018479999999999"/>
			<trkpt lat="49.90426999998852" lon="5.0181000000000004"/>
			<trkpt lat="49.904379999988535" lon="5.017709999999999"/>
			<trkpt lat="49.904429999988515" lon="5.017610000000001"/>
			<trkpt lat="49.90473999998853" lon="5.01705"/>
			<trkpt lat="49.90475999998853" lon="5.017000000000001"/>
			<trkpt lat="49.90498999998852" lon="5.0166"/>
			<trkpt lat="49.90521999998853" lon="5.01614"/>
			<trkpt lat="49.90535999998853" lon="5.015899999999999"/>
			<trkpt lat="49.905979999988524" lon="5.014959999999999"/>
			<trkpt lat="49.90672999998853" lon="5.01377"/>
			<trkpt lat="49.90690999998853" lon="5.01356"/>
			<trkpt lat="49.90704999998852" lon="5.013480000000001"/>
			<trkpt lat="49.90723999998852" lon="5.013400000000001"/>
			<trkpt lat="49.90759999998851" lon="5.0133"/>
			<trkpt lat="49.90810999998854" lon="5.01312"/>
			<trkpt lat="49.90833999998853" lon="5.013"/>
			<trkpt lat="49.90853999998854" lon="5.01285"/>
			<trkpt lat="49.90865999998853" lon="5.012789999999999"/>
			<trkpt lat="49.90875999998852" lon="5.012769999999999"/>
			<trkpt lat="49.90900999998854" lon="5.01266"/>
			<trkpt lat="49.90875999998851" lon="5.012430000000001"/>
			<trkpt lat="49.90874999998854" lon="5.0124"/>
			<trkpt lat="49.908679999988536" lon="5.01206"/>
			<trkpt lat="49.908699999988535" lon="5.011800000000001"/>
			<trkpt lat="49.908699999988535" lon="5.01161"/>
			<trkpt lat="49.90872999998853" lon="5.011429999999999"/>
			<trkpt lat="49.90880999998854" lon="5.011280000000001"/>
			<trkpt lat="49.90904999998853" lon="5.01138"/>
			<trkpt lat="49.90913999998853" lon="5.0113900000000005"/>
			<trkpt lat="49.90926999998854" lon="5.011260000000001"/>
			<trkpt lat="49.90939999998853" lon="5.011079999999999"/>
			<trkpt lat="49.90943999998853" lon="5.0109900000000005"/>
			<trkpt lat="49.90947999998854" lon="5.01086"/>
			<trkpt lat="49.90948999998852" lon="5.010789999999999"/>
			<trkpt lat="49.90947999998854" lon="5.01022"/>
			<trkpt lat="49.90944999998853" lon="5.009929999999999"/>
			<trkpt lat="49.90933999998854" lon="5.0093700000000005"/>
			<trkpt lat="49.909349999988535" lon="5.009369999999999"/>
			<trkpt lat="49.90930999997706" lon="5.00936"/>
			<trkpt lat="49.90916999997706" lon="5.00937"/>
			<trkpt lat="49.90887999997707" lon="5.00941"/>
			<trkpt lat="49.90861999997707" lon="5.00949"/>
			<trkpt lat="49.90842999997707" lon="5.009529999999999"/>
			<trkpt lat="49.90812999997706" lon="5.0094899999999996"/>
			<trkpt lat="49.90763999997707" lon="5.009509999999999"/>
			<trkpt lat="49.907129999977066" lon="5.00949"/>
			<trkpt lat="49.906089999977056" lon="5.0095"/>
			<trkpt lat="49.90565999997705" lon="5.009490000000001"/>
			<trkpt lat="49.904319999977055" lon="5.00927"/>
			<trkpt lat="49.90400999997705" lon="5.00928"/>
			<trkpt lat="49.90389999997705" lon="5.00927"/>
			<trkpt lat="49.903049999977064" lon="5.0089500000000005"/>
			<trkpt lat="49.902779999977035" lon="5.008880000000001"/>
			<trkpt lat="49.90232999997704" lon="5.008840000000001"/>
			<trkpt lat="49.901759999977045" lon="5.008840000000001"/>
			<trkpt lat="49.90077999997702" lon="5.008929999999999"/>
			<trkpt lat="49.90005999997703" lon="5.008940000000001"/>
			<trkpt lat="49.89964999997703" lon="5.00902"/>
			<trkpt lat="49.89964999997703" lon="5.009100000000001"/>
			<trkpt lat="49.89964999997703" lon="5.00895"/>
			<trkpt lat="49.89963999997704" lon="5.0088799999999996"/>
			<trkpt lat="49.89961999997703" lon="5.00844"/>
			<trkpt lat="49.89960999997703" lon="5.00773"/>
			<trkpt lat="49.89963999997704" lon="5.007450000000001"/>
			<trkpt lat="49.899719999977" lon="5.00687"/>
			<trkpt lat="49.89983999997701" lon="5.00613"/>
			<trkpt lat="49.899969999977046" lon="5.005199999999999"/>
			<trkpt lat="49.899989999977045" lon="5.005139999999999"/>
			<trkpt lat="49.900009999977016" lon="5.004740000000001"/>
			<trkpt lat="49.899999999977034" lon="5.004419999999999"/>
			<trkpt lat="49.899999999977034" lon="5.00399"/>
			<trkpt lat="49.900019999977026" lon="5.003219999999999"/>
			<trkpt lat="49.90003999997704" lon="5.00307"/>
			<trkpt lat="49.90003999997704" lon="5.003020000000001"/>
			<trkpt lat="49.89989999997705" lon="5.00295"/>
			<trkpt lat="49.89970999997704" lon="5.00288"/>
			<trkpt lat="49.89962999997704" lon="5.002870000000001"/>
			<trkpt lat="49.89945999997702" lon="5.00287"/>
			<trkpt lat="49.898759999977024" lon="5.002939999999999"/>
			<trkpt lat="49.898619999977015" lon="5.002939999999999"/>
			<trkpt lat="49.89830999997703" lon="5.002910000000001"/>
			<trkpt lat="49.89802999997705" lon="5.002840000000001"/>
			<trkpt lat="49.89780999997702" lon="5.00276"/>
			<trkpt lat="49.89746999997702" lon="5.0026"/>
			<trkpt lat="49.89746999997702" lon="5.002590000000001"/>
			<trkpt lat="49.89729999997703" lon="5.002500000000001"/>
			<trkpt lat="49.89652999997701" lon="5.002000000000001"/>
			<trkpt lat="49.89646999997702" lon="5.002010000000002"/>
			<trkpt lat="49.89593999997702" lon="5.00245"/>
			<trkpt lat="49.89587999997701" lon="5.00248"/>
			<trkpt lat="49.895819999977" lon="5.00249"/>
			<trkpt lat="49.89572999997701" lon="5.00247"/>
			<trkpt lat="49.89553999997702" lon="5.00246"/>
			<trkpt lat="49.895439999977" lon="5.002469999999999"/>
			<trkpt lat="49.89533999997702" lon="5.00255"/>
			<trkpt lat="49.89528999997701" lon="5.002669999999999"/>
			<trkpt lat="49.89523999997702" lon="5.003029999999999"/>
			<trkpt lat="49.89518999997702" lon="5.003529999999999"/>
			<trkpt lat="49.895209999977006" lon="5.003709999999999"/>
			<trkpt lat="49.89522999997701" lon="5.003829999999999"/>
			<trkpt lat="49.89560999997699" lon="5.00481"/>
			<trkpt lat="49.895739999977025" lon="5.005159999999999"/>
			<trkpt lat="49.895859999977006" lon="5.005520000000001"/>
			<trkpt lat="49.89583999997703" lon="5.00564"/>
			<trkpt lat="49.895819999977014" lon="5.005680000000002"/>
			<trkpt lat="49.895759999977" lon="5.005740000000002"/>
			<trkpt lat="49.89564999997702" lon="5.00576"/>
			<trkpt lat="49.89553999997702" lon="5.005740000000002"/>
			<trkpt lat="49.895519999977" lon="5.005740000000001"/>
			<trkpt lat="49.89543999997701" lon="5.006029999999999"/>
			<trkpt lat="49.89536999997701" lon="5.0061800000000005"/>
			<trkpt lat="49.89534999997702" lon="5.006200000000001"/>
			<trkpt lat="49.89519999997701" lon="5.00646"/>
			<trkpt lat="49.894949999976994" lon="5.006760000000001"/>
			<trkpt lat="49.89480999997702" lon="5.006950000000001"/>
			<trkpt lat="49.894749999977" lon="5.00705"/>
			<trkpt lat="49.894689999977" lon="5.007180000000001"/>
			<trkpt lat="49.894639999976995" lon="5.00734"/>
			<trkpt lat="49.894559999977005" lon="5.007770000000001"/>
			<trkpt lat="49.89442999997702" lon="5.0086"/>
			<trkpt lat="49.89439999997702" lon="5.008729999999999"/>
			<trkpt lat="49.89433999997701" lon="5.00887"/>
			<trkpt lat="49.894269999977" lon="5.0089500000000005"/>
			<trkpt lat="49.894199999977005" lon="5.009009999999999"/>
			<trkpt lat="49.894059999977" lon="5.009079999999999"/>
			<trkpt lat="49.894009999977015" lon="5.009089999999999"/>
			<trkpt lat="49.894019999977004" lon="5.00904"/>
			<trkpt lat="49.894009999977015" lon="5.009089999999999"/>
			<trkpt lat="49.893969999977024" lon="5.0091"/>
			<trkpt lat="49.89375999997701" lon="5.009129999999999"/>
			<trkpt lat="49.893599999977006" lon="5.00913"/>
			<trkpt lat="49.89358999997702" lon="5.008810000000001"/>
			<trkpt lat="49.893579999976986" lon="5.008789999999999"/>
			<trkpt lat="49.89355999997701" lon="5.00849"/>
			<trkpt lat="49.893629999977016" lon="5.008490000000001"/>
			<trkpt lat="49.89355999997701" lon="5.00849"/>
			<trkpt lat="49.893519999977" lon="5.00824"/>
			<trkpt lat="49.89349999997702" lon="5.00817"/>
			<trkpt lat="49.89344999997698" lon="5.00804"/>
			<trkpt lat="49.893339999977016" lon="5.007910000000001"/>
			<trkpt lat="49.89324999997699" lon="5.007829999999999"/>
			<trkpt lat="49.89296999997701" lon="5.007650000000001"/>
			<trkpt lat="49.892829999976996" lon="5.007539999999999"/>
			<trkpt lat="49.89279999997698" lon="5.00753"/>
			<trkpt lat="49.89224999997699" lon="5.00714"/>
			<trkpt lat="49.892089999977" lon="5.007280000000001"/>
			<trkpt lat="49.89184999997698" lon="5.00753"/>
			<trkpt lat="49.89156999997699" lon="5.007939999999999"/>
			<trkpt lat="49.891479999976994" lon="5.00809"/>
			<trkpt lat="49.89124999997698" lon="5.008369999999999"/>
			<trkpt lat="49.891019999977" lon="5.00857"/>
			<trkpt lat="49.890569999977" lon="5.009009999999999"/>
			<trkpt lat="49.890009999977" lon="5.0095"/>
			<trkpt lat="49.889889999976994" lon="5.009580000000001"/>
			<trkpt lat="49.88953999997699" lon="5.009769999999999"/>
			<trkpt lat="49.889309999976994" lon="5.009929999999999"/>
			<trkpt lat="49.88907999997697" lon="5.01013"/>
			<trkpt lat="49.888909999976995" lon="5.010349999999998"/>
			<trkpt lat="49.88875999997699" lon="5.010579999999999"/>
			<trkpt lat="49.888479999976994" lon="5.0110800000000015"/>
			<trkpt lat="49.888439999976974" lon="5.011130000000001"/>
			<trkpt lat="49.888229999976986" lon="5.01132"/>
			<trkpt lat="49.88807999997698" lon="5.011430000000001"/>
			<trkpt lat="49.887719999976994" lon="5.0117600000000015"/>
			<trkpt lat="49.88755999997696" lon="5.011869999999999"/>
			<trkpt lat="49.887109999977" lon="5.011940000000001"/>
			<trkpt lat="49.88646999997698" lon="5.01196"/>
			<trkpt lat="49.88606999997698" lon="5.0120000000000005"/>
			<trkpt lat="49.88594999997699" lon="5.012"/>
			<trkpt lat="49.88558999997697" lon="5.011949999999999"/>
			<trkpt lat="49.88493999997697" lon="5.011890000000001"/>
			<trkpt lat="49.884289999976986" lon="5.011960000000001"/>
			<trkpt lat="49.88402999997697" lon="5.011970000000001"/>
			<trkpt lat="49.883459999976985" lon="5.012040000000001"/>
			<trkpt lat="49.88330999997696" lon="5.01207"/>
			<trkpt lat="49.883049999976976" lon="5.012160000000001"/>
			<trkpt lat="49.882769999976965" lon="5.012340000000001"/>
			<trkpt lat="49.882639999976945" lon="5.012449999999999"/>
			<trkpt lat="49.882479999976965" lon="5.012620000000001"/>
			<trkpt lat="49.882019999976954" lon="5.01316"/>
			<trkpt lat="49.88182999997695" lon="5.013349999999999"/>
			<trkpt lat="49.88164999997695" lon="5.013499999999999"/>
			<trkpt lat="49.88148999997698" lon="5.013610000000001"/>
			<trkpt lat="49.88135999997695" lon="5.013670000000001"/>
			<trkpt lat="49.88119999997696" lon="5.0137"/>
			<trkpt lat="49.88111999997696" lon="5.013699999999999"/>
			<trkpt lat="49.88099999997696" lon="5.013670000000002"/>
			<trkpt lat="49.88084999997697" lon="5.013600000000001"/>
			<trkpt lat="49.88014999997698" lon="5.013219999999999"/>
			<trkpt lat="49.87985999997695" lon="5.013080000000001"/>
			<trkpt lat="49.87917999997692" lon="5.01266"/>
			<trkpt lat="49.87838999997694" lon="5.011990000000001"/>
			<trkpt lat="49.87827999997693" lon="5.011939999999999"/>
			<trkpt lat="49.87822999997695" lon="5.011949999999999"/>
			<trkpt lat="49.87818999997694" lon="5.011980000000001"/>
			<trkpt lat="49.87816999997694" lon="5.01201"/>
			<trkpt lat="49.87807999997696" lon="5.012170000000001"/>
			<trkpt lat="49.87783999997694" lon="5.01267"/>
			<trkpt lat="49.87756999997695" lon="5.013600000000001"/>
			<trkpt lat="49.87748999997695" lon="5.013799999999999"/>
			<trkpt lat="49.877299999976934" lon="5.014139999999999"/>
			<trkpt lat="49.87724999997695" lon="5.014319999999999"/>
			<trkpt lat="49.87723999997694" lon="5.014389999999999"/>
			<trkpt lat="49.87723999997694" lon="5.01459"/>
			<trkpt lat="49.87730999997694" lon="5.014910000000002"/>
			<trkpt lat="49.87738999997693" lon="5.015350000000001"/>
			<trkpt lat="49.87739999997694" lon="5.015639999999999"/>
			<trkpt lat="49.87743999997696" lon="5.016279999999999"/>
			<trkpt lat="49.87753999997694" lon="5.017170000000001"/>
			<trkpt lat="49.877549999976935" lon="5.017500000000001"/>
			<trkpt lat="49.87752999997694" lon="5.0176500000000015"/>
			<trkpt lat="49.87739999997694" lon="5.01827"/>
			<trkpt lat="49.87731999997695" lon="5.018810000000001"/>
			<trkpt lat="49.87728999997695" lon="5.01891"/>
			<trkpt lat="49.87693999997693" lon="5.01966"/>
			<trkpt lat="49.87687999997694" lon="5.01981"/>
			<trkpt lat="49.87682999997692" lon="5.01997"/>
			<trkpt lat="49.87680999997695" lon="5.020080000000001"/>
			<trkpt lat="49.87680999997693" lon="5.02018"/>
			<trkpt lat="49.87683999997694" lon="5.020319999999999"/>
			<trkpt lat="49.87697999997696" lon="5.020689999999999"/>
			<trkpt lat="49.877039999976944" lon="5.020819999999999"/>
			<trkpt lat="49.87654999997695" lon="5.02154"/>
			<trkpt lat="49.87645999997693" lon="5.02174"/>
			<trkpt lat="49.87617999997694" lon="5.022469999999999"/>
			<trkpt lat="49.876049999976935" lon="5.022869999999999"/>
			<trkpt lat="49.87588999997691" lon="5.02351"/>
			<trkpt lat="49.87581999997694" lon="5.023749999999999"/>
			<trkpt lat="49.87575999997695" lon="5.024029999999999"/>
			<trkpt lat="49.875729999976926" lon="5.024190000000001"/>
			<trkpt lat="49.87569999997693" lon="5.02453"/>
			<trkpt lat="49.875659999976925" lon="5.025360000000001"/>
			<trkpt lat="49.875649999976936" lon="5.027379999999998"/>
			<trkpt lat="49.87559999997692" lon="5.027880000000001"/>
			<trkpt lat="49.87552999997695" lon="5.028369999999999"/>
			<trkpt lat="49.87546999997693" lon="5.02865"/>
			<trkpt lat="49.87538999997693" lon="5.028930000000002"/>
			<trkpt lat="49.87519999997693" lon="5.02937"/>
			<trkpt lat="49.87508999997692" lon="5.029660000000001"/>
			<trkpt lat="49.874779999976916" lon="5.03095"/>
			<trkpt lat="49.87464999997693" lon="5.031270000000001"/>
			<trkpt lat="49.874579999976945" lon="5.031390000000001"/>
			<trkpt lat="49.87419999997693" lon="5.031950000000001"/>
			<trkpt lat="49.87389999997693" lon="5.032430000000001"/>
			<trkpt lat="49.87360999997692" lon="5.033199999999999"/>
			<trkpt lat="49.87317999997691" lon="5.034540000000002"/>
			<trkpt lat="49.87307999997693" lon="5.034740000000001"/>
			<trkpt lat="49.87298999997693" lon="5.034879999999999"/>
			<trkpt lat="49.87282999997692" lon="5.03507"/>
			<trkpt lat="49.87271999997691" lon="5.035180000000001"/>
			<trkpt lat="49.87258999997694" lon="5.035279999999999"/>
			<trkpt lat="49.87192999997693" lon="5.0357199999999995"/>
			<trkpt lat="49.87170999997692" lon="5.0358800000000015"/>
			<trkpt lat="49.87151999997692" lon="5.036060000000002"/>
			<trkpt lat="49.87089999997691" lon="5.036739999999998"/>
			<trkpt lat="49.87074999997691" lon="5.036880000000001"/>
			<trkpt lat="49.8704599999769" lon="5.037090000000001"/>
			<trkpt lat="49.87027999997691" lon="5.037200000000001"/>
			<trkpt lat="49.87003999997692" lon="5.037380000000001"/>
			<trkpt lat="49.86986999997692" lon="5.03755"/>
			<trkpt lat="49.869749999976925" lon="5.037700000000001"/>
			<trkpt lat="49.8694799999769" lon="5.03811"/>
			<trkpt lat="49.869179999976915" lon="5.03854"/>
			<trkpt lat="49.868859999976905" lon="5.038889999999999"/>
			<trkpt lat="49.868699999976904" lon="5.03904"/>
			<trkpt lat="49.86853999997692" lon="5.039220000000002"/>
			<trkpt lat="49.86846999997691" lon="5.03928"/>
			<trkpt lat="49.8683399999769" lon="5.03943"/>
			<trkpt lat="49.8682899999769" lon="5.03934"/>
			<trkpt lat="49.868139999976876" lon="5.03905"/>
			<trkpt lat="49.867829999976905" lon="5.038520000000001"/>
			<trkpt lat="49.86776999997691" lon="5.038430000000001"/>
			<trkpt lat="49.8676599999769" lon="5.03833"/>
			<trkpt lat="49.86765999997689" lon="5.038200000000001"/>
			<trkpt lat="49.8676599999769" lon="5.03833"/>
			<trkpt lat="49.867629999976906" lon="5.03855"/>
			<trkpt lat="49.8674099999769" lon="5.039210000000001"/>
			<trkpt lat="49.86749999997692" lon="5.03935"/>
			<trkpt lat="49.86726999997688" lon="5.039749999999999"/>
			<trkpt lat="49.867209999976886" lon="5.03989"/>
			<trkpt lat="49.867099999976915" lon="5.040329999999999"/>
			<trkpt lat="49.86704999997692" lon="5.040419999999999"/>
			<trkpt lat="49.86693999997691" lon="5.040559999999999"/>
			<trkpt lat="49.866389999976896" lon="5.0408800000000005"/>
			<trkpt lat="49.8652999999769" lon="5.04166"/>
			<trkpt lat="49.8651399999769" lon="5.041869999999999"/>
			<trkpt lat="49.86491999997687" lon="5.042290000000001"/>
			<trkpt lat="49.864859999976915" lon="5.0424500000000005"/>
			<trkpt lat="49.864769999976886" lon="5.042889999999998"/>
			<trkpt lat="49.86474999997689" lon="5.043079999999999"/>
			<trkpt lat="49.86474999997689" lon="5.043230000000001"/>
			<trkpt lat="49.86475999997688" lon="5.043370000000001"/>
			<trkpt lat="49.864899999976906" lon="5.044390000000001"/>
			<trkpt lat="49.864909999976895" lon="5.044559999999999"/>
			<trkpt lat="49.864899999976906" lon="5.04478"/>
			<trkpt lat="49.864879999976885" lon="5.044970000000001"/>
			<trkpt lat="49.8648099999769" lon="5.04528"/>
			<trkpt lat="49.86458999997689" lon="5.04608"/>
			<trkpt lat="49.86428999997688" lon="5.047259999999999"/>
			<trkpt lat="49.86416999997688" lon="5.047360000000002"/>
			<trkpt lat="49.8640799999769" lon="5.047469999999999"/>
			<trkpt lat="49.86400999997688" lon="5.047589999999999"/>
			<trkpt lat="49.86393999997688" lon="5.047729999999999"/>
			<trkpt lat="49.863879999976895" lon="5.047880000000002"/>
			<trkpt lat="49.863829999976886" lon="5.04807"/>
			<trkpt lat="49.86376999997691" lon="5.048349999999999"/>
			<trkpt lat="49.86368999997687" lon="5.049079999999999"/>
			<trkpt lat="49.86361999997689" lon="5.050160000000001"/>
			<trkpt lat="49.863499999976874" lon="5.05084"/>
			<trkpt lat="49.863429999976866" lon="5.051140000000002"/>
			<trkpt lat="49.863229999976895" lon="5.05176"/>
			<trkpt lat="49.863139999976895" lon="5.051950000000001"/>
			<trkpt lat="49.86303999997688" lon="5.0521"/>
			<trkpt lat="49.862909999976914" lon="5.0523299999999995"/>
			<trkpt lat="49.86252999997689" lon="5.05307"/>
			<trkpt lat="49.862459999976885" lon="5.053299999999999"/>
			<trkpt lat="49.8622999999769" lon="5.054040000000001"/>
			<trkpt lat="49.8622699999769" lon="5.054109999999999"/>
			<trkpt lat="49.86216999997687" lon="5.054299999999999"/>
			<trkpt lat="49.8619699999769" lon="5.05455"/>
			<trkpt lat="49.861819999976866" lon="5.054760000000001"/>
			<trkpt lat="49.86173999997687" lon="5.054949999999998"/>
			<trkpt lat="49.86163999997687" lon="5.055289999999999"/>
			<trkpt lat="49.86157999997688" lon="5.0555900000000005"/>
			<trkpt lat="49.861529999976874" lon="5.05596"/>
			<trkpt lat="49.86146999997688" lon="5.05632"/>
			<trkpt lat="49.86132999997688" lon="5.0568800000000005"/>
			<trkpt lat="49.86110999997686" lon="5.05758"/>
			<trkpt lat="49.860949999976874" lon="5.05819"/>
			<trkpt lat="49.860839999976875" lon="5.058520000000001"/>
			<trkpt lat="49.86074999997689" lon="5.058940000000001"/>
			<trkpt lat="49.86067999997688" lon="5.0595"/>
			<trkpt lat="49.860599999976856" lon="5.060499999999998"/>
			<trkpt lat="49.860559999976864" lon="5.060829999999998"/>
			<trkpt lat="49.860529999976855" lon="5.061599999999999"/>
			<trkpt lat="49.86046999997686" lon="5.06237"/>
			<trkpt lat="49.86034999997689" lon="5.063129999999998"/>
			<trkpt lat="49.860329999976855" lon="5.063220000000001"/>
			<trkpt lat="49.860329999976855" lon="5.06325"/>
			<trkpt lat="49.86034999997688" lon="5.06326"/>
			<trkpt lat="49.86133999997688" lon="5.06336"/>
			<trkpt lat="49.86284999997688" lon="5.063430000000002"/>
			<trkpt lat="49.8630799999769" lon="5.063390000000001"/>
			<trkpt lat="49.86326999997689" lon="5.06331"/>
			<trkpt lat="49.8633999999769" lon="5.0631900000000005"/>
			<trkpt lat="49.86354999997689" lon="5.063000000000001"/>
			<trkpt lat="49.86381999997689" lon="5.06255"/>
			<trkpt lat="49.864459999976916" lon="5.061929999999999"/>
			<trkpt lat="49.864699999976885" lon="5.061679999999999"/>
			<trkpt lat="49.86473999997688" lon="5.0616200000000005"/>
			<trkpt lat="49.86550999997688" lon="5.0596499999999995"/>
			<trkpt lat="49.8656299999769" lon="5.05932"/>
			<trkpt lat="49.865659999976884" lon="5.05921"/>
			<trkpt lat="49.865669999976895" lon="5.059120000000001"/>
			<trkpt lat="49.86569999997689" lon="5.059"/>
			<trkpt lat="49.86631999997689" lon="5.059289999999999"/>
			<trkpt lat="49.86730999997689" lon="5.059779999999999"/>
			<trkpt lat="49.867689999976896" lon="5.0598600000000005"/>
			<trkpt lat="49.867809999976906" lon="5.059899999999999"/>
			<trkpt lat="49.868009999976906" lon="5.06006"/>
			<trkpt lat="49.8680999999769" lon="5.06021"/>
			<trkpt lat="49.86816999997691" lon="5.060460000000001"/>
			<trkpt lat="49.868209999976905" lon="5.060520000000001"/>
			<trkpt lat="49.86824999997691" lon="5.060549999999999"/>
			<trkpt lat="49.86850999997692" lon="5.060650000000001"/>
			<trkpt lat="49.868449999976924" lon="5.06076"/>
			<trkpt lat="49.86853999997692" lon="5.060599999999999"/>
			<trkpt lat="49.8689899999769" lon="5.06177"/>
			<trkpt lat="49.869269999976915" lon="5.062459999999999"/>
			<trkpt lat="49.86930999997692" lon="5.0625800000000005"/>
			<trkpt lat="49.86936999997692" lon="5.062690000000001"/>
			<trkpt lat="49.86942999997691" lon="5.062850000000002"/>
			<trkpt lat="49.86946999997691" lon="5.062909999999999"/>
			<trkpt lat="49.86985999997691" lon="5.063789999999998"/>
			<trkpt lat="49.870439999976924" lon="5.0650200000000005"/>
			<trkpt lat="49.87048999997691" lon="5.06509"/>
			<trkpt lat="49.870539999976906" lon="5.065140000000001"/>
			<trkpt lat="49.870579999976904" lon="5.06516"/>
			<trkpt lat="49.870629999976906" lon="5.065159999999999"/>
			<trkpt lat="49.8706899999769" lon="5.06514"/>
			<trkpt lat="49.87089999997692" lon="5.065030000000001"/>
			<trkpt lat="49.87130999997694" lon="5.064779999999999"/>
			<trkpt lat="49.87200999997691" lon="5.06443"/>
			<trkpt lat="49.87216999997692" lon="5.06433"/>
			<trkpt lat="49.87251999997693" lon="5.064079999999999"/>
			<trkpt lat="49.87260999997692" lon="5.064000000000001"/>
			<trkpt lat="49.873199999976904" lon="5.063559999999999"/>
			<trkpt lat="49.87337999997693" lon="5.063460000000002"/>
			<trkpt lat="49.873499999976914" lon="5.063419999999999"/>
			<trkpt lat="49.873749999976916" lon="5.063380000000001"/>
			<trkpt lat="49.87444999997694" lon="5.063369999999999"/>
			<trkpt lat="49.874839999976935" lon="5.063339999999998"/>
			<trkpt lat="49.874979999976944" lon="5.063279999999999"/>
			<trkpt lat="49.875109999976964" lon="5.063190000000001"/>
			<trkpt lat="49.87537999997693" lon="5.063039999999999"/>
			<trkpt lat="49.87554999997693" lon="5.0629300000000015"/>
			<trkpt lat="49.87609999997695" lon="5.06251"/>
			<trkpt lat="49.87631999997694" lon="5.06244"/>
			<trkpt lat="49.87655999997694" lon="5.0624"/>
			<trkpt lat="49.877049999976926" lon="5.062160000000001"/>
			<trkpt lat="49.877299999976934" lon="5.06208"/>
			<trkpt lat="49.87741999997695" lon="5.06202"/>
			<trkpt lat="49.877769999976955" lon="5.06179"/>
			<trkpt lat="49.877919999976946" lon="5.0616900000000005"/>
			<trkpt lat="49.87802999997695" lon="5.061599999999999"/>
			<trkpt lat="49.87809999997693" lon="5.061519999999999"/>
			<trkpt lat="49.878279999976954" lon="5.061260000000001"/>
			<trkpt lat="49.878639999976954" lon="5.06081"/>
			<trkpt lat="49.87885999997696" lon="5.060460000000001"/>
			<trkpt lat="49.87908999997695" lon="5.060130000000001"/>
			<trkpt lat="49.87925999997694" lon="5.05982"/>
			<trkpt lat="49.87955999997693" lon="5.05922"/>
			<trkpt lat="49.87973999997695" lon="5.058910000000001"/>
			<trkpt lat="49.879849999976955" lon="5.058770000000002"/>
			<trkpt lat="49.880229999976955" lon="5.058230000000001"/>
			<trkpt lat="49.88053999997696" lon="5.057710000000002"/>
			<trkpt lat="49.88080999997696" lon="5.057229999999998"/>
			<trkpt lat="49.88098999997695" lon="5.056780000000002"/>
			<trkpt lat="49.88114999997697" lon="5.056289999999999"/>
			<trkpt lat="49.88137999997697" lon="5.05568"/>
			<trkpt lat="49.881429999976966" lon="5.05576"/>
			<trkpt lat="49.88143999997694" lon="5.055709999999999"/>
			<trkpt lat="49.88146999997697" lon="5.05555"/>
			<trkpt lat="49.88157999997694" lon="5.055269999999999"/>
			<trkpt lat="49.88171999997697" lon="5.05503"/>
			<trkpt lat="49.88185999997697" lon="5.054829999999999"/>
			<trkpt lat="49.88211999997697" lon="5.05454"/>
			<trkpt lat="49.88220999997696" lon="5.05446"/>
			<trkpt lat="49.88233999997695" lon="5.05432"/>
			<trkpt lat="49.88303999997696" lon="5.05367"/>
			<trkpt lat="49.88370999997698" lon="5.05307"/>
			<trkpt lat="49.884179999976965" lon="5.052600000000001"/>
			<trkpt lat="49.88439999997698" lon="5.052350000000001"/>
			<trkpt lat="49.88464999997698" lon="5.05202"/>
			<trkpt lat="49.88483999997697" lon="5.05172"/>
			<trkpt lat="49.88499999997698" lon="5.051440000000002"/>
			<trkpt lat="49.885319999976964" lon="5.050950000000001"/>
			<trkpt lat="49.88556999997697" lon="5.050629999999999"/>
			<trkpt lat="49.88617999997696" lon="5.049930000000001"/>
			<trkpt lat="49.88645999997698" lon="5.04958"/>
			<trkpt lat="49.886699999976976" lon="5.04932"/>
			<trkpt lat="49.88686999997698" lon="5.04917"/>
			<trkpt lat="49.88752999997697" lon="5.04869"/>
			<trkpt lat="49.88819999997698" lon="5.048169999999999"/>
			<trkpt lat="49.88856999997697" lon="5.047899999999999"/>
			<trkpt lat="49.88907999997698" lon="5.04745"/>
			<trkpt lat="49.889289999976995" lon="5.04723"/>
			<trkpt lat="49.88933999997699" lon="5.047160000000001"/>
			<trkpt lat="49.88937999997699" lon="5.047100000000001"/>
			<trkpt lat="49.889549999976985" lon="5.046770000000001"/>
			<trkpt lat="49.889639999977" lon="5.04652"/>
			<trkpt lat="49.88982999997699" lon="5.045860000000001"/>
			<trkpt lat="49.88994999997699" lon="5.045400000000001"/>
			<trkpt lat="49.890059999977005" lon="5.044920000000001"/>
			<trkpt lat="49.89014999997699" lon="5.04464"/>
			<trkpt lat="49.89028999997699" lon="5.044330000000001"/>
			<trkpt lat="49.890599999977006" lon="5.04387"/>
			<trkpt lat="49.891709999976996" lon="5.042509999999999"/>
			<trkpt lat="49.89181999997701" lon="5.042389999999999"/>
			<trkpt lat="49.892009999977" lon="5.042150000000001"/>
			<trkpt lat="49.892059999976986" lon="5.04207"/>
			<trkpt lat="49.89213999997699" lon="5.04191"/>
			<trkpt lat="49.89225999997699" lon="5.0416"/>
			<trkpt lat="49.892309999977" lon="5.04142"/>
			<trkpt lat="49.892579999977" lon="5.04059"/>
			<trkpt lat="49.89282999997699" lon="5.0399699999999985"/>
			<trkpt lat="49.89320999997702" lon="5.039120000000001"/>
			<trkpt lat="49.893489999977014" lon="5.038610000000001"/>
			<trkpt lat="49.893689999977" lon="5.0382799999999985"/>
			<trkpt lat="49.893809999977016" lon="5.03804"/>
			<trkpt lat="49.893869999988496" lon="5.03823"/>
			<trkpt lat="49.8938099999885" lon="5.03804"/>
			<trkpt lat="49.8938299999885" lon="5.0379700000000005"/>
			<trkpt lat="49.8938999999885" lon="5.03788"/>
			<trkpt lat="49.894129999988486" lon="5.037689999999999"/>
			<trkpt lat="49.8942999999885" lon="5.037629999999999"/>
			<trkpt lat="49.8945599999885" lon="5.03756"/>
			<trkpt lat="49.8948699999885" lon="5.03741"/>
			<trkpt lat="49.8954699999885" lon="5.03707"/>
			<trkpt lat="49.89616999998849" lon="5.036759999999999"/>
			<trkpt lat="49.89637999998852" lon="5.03661"/>
			<trkpt lat="49.896629999988505" lon="5.036369999999999"/>
			<trkpt lat="49.89677999998851" lon="5.03621"/>
			<trkpt lat="49.89718999998852" lon="5.035730000000001"/>
			<trkpt lat="49.89787999998852" lon="5.03496"/>
			<trkpt lat="49.89798999998851" lon="5.034810000000001"/>
			<trkpt lat="49.898079999988525" lon="5.03466"/>
			<trkpt lat="49.898169999988504" lon="5.034479999999999"/>
			<trkpt lat="49.89839999998852" lon="5.03397"/>
			<trkpt lat="49.89868999998851" lon="5.033400000000001"/>
			<trkpt lat="49.89875999998851" lon="5.033210000000001"/>
			<trkpt lat="49.8987699999885" lon="5.03321"/>
			<trkpt lat="49.898889999988505" lon="5.03282"/>
			<trkpt lat="49.89905999998851" lon="5.032149999999999"/>
			<trkpt lat="49.89913999998851" lon="5.03154"/>
			<trkpt lat="49.89914999998851" lon="5.031170000000001"/>
			<trkpt lat="49.89911999998852" lon="5.03095"/>
			<trkpt lat="49.89909999998849" lon="5.030890000000001"/>
			<trkpt lat="49.899079999988516" lon="5.0307699999999995"/>
			<trkpt lat="49.898899999988515" lon="5.029960000000001"/>
			<trkpt lat="49.89882999998851" lon="5.02968"/>
			<trkpt lat="49.89871999998852" lon="5.029140000000001"/>
			<trkpt lat="49.89868999998851" lon="5.029050000000001"/>
			<trkpt lat="49.89856999998852" lon="5.02855"/>
			<trkpt lat="49.89852999998852" lon="5.02841"/>
			<trkpt lat="49.89846999998853" lon="5.028269999999999"/>
			<trkpt lat="49.89845999998851" lon="5.028209999999999"/>
			<trkpt lat="49.89847999998851" lon="5.028150000000001"/>
			<trkpt lat="49.89862999998851" lon="5.027889999999999"/>
			<trkpt lat="49.8988399999885" lon="5.02765"/>
			<trkpt lat="49.8988799999885" lon="5.027650000000001"/>
			<trkpt lat="49.898969999988516" lon="5.027610000000001"/>
			<trkpt lat="49.89899999998851" lon="5.02757"/>
			<trkpt lat="49.89902999998852" lon="5.027500000000001"/>
			<trkpt lat="49.89906999998851" lon="5.02735"/>
			<trkpt lat="49.89906999998851" lon="5.0273200000000005"/>
			<trkpt lat="49.89907999998852" lon="5.02731"/>
			<trkpt lat="49.899109999988525" lon="5.02706"/>
			<trkpt lat="49.89909999998851" lon="5.02701"/>
			<trkpt lat="49.89909999998849" lon="5.026950000000001"/>
			<trkpt lat="49.8991699999885" lon="5.026939999999999"/>
			<trkpt lat="49.8994899999885" lon="5.026950000000001"/>
			<trkpt lat="49.8995299999885" lon="5.026820000000001"/>
			<extensions>
				<tmv:trkseg_extension>
					<tmv:trkseg_fixedpoint_indexes>
						<tmv:num>0</tmv:num>
						<tmv:num>6</tmv:num>
						<tmv:num>65</tmv:num>
						<tmv:num>81</tmv:num>
						<tmv:num>102</tmv:num>
						<tmv:num>116</tmv:num>
						<tmv:num>151</tmv:num>
						<tmv:num>170</tmv:num>
						<tmv:num>178</tmv:num>
						<tmv:num>239</tmv:num>
						<tmv:num>312</tmv:num>
						<tmv:num>317</tmv:num>
						<tmv:num>380</tmv:num>
						<tmv:num>409</tmv:num>
						<tmv:num>465</tmv:num>
						<tmv:num>514</tmv:num>
						<tmv:num>566</tmv:num>
					</tmv:trkseg_fixedpoint_indexes>
				</tmv:trkseg_extension>
			</extensions>
		</trkseg>
	</trk>
</gpx>
