<gpx xmlns="http://www.topografix.com/GPX/1/1" xmlns:xsi="http://www.w3.org/2001/XMLSchema-instance" xsi:schemaLocation="http://www.topografix.com/GPX/1/1 http://www.topografix.com/GPX/1/1/gpx.xsd https://topomapviewer.ngi.be/xmlschemas/tracegpxextensions/v1_1 https://common.ngi.be/static/xmlschemas/tmv_trace_gpxextensions_v1_1.xsd" xmlns:tmv="https://topomapviewer.ngi.be/xmlschemas/tracegpxextensions/v1_1" version="1.1" creator="NGI-IGN BE">
	<metadata>
		<name>Merel_kids_aangepast</name>
		<desc>Draft kinderroute langs eerste en laatste nestkastje</desc>
		<time>2026-06-25T19:48:18.633Z</time>
	</metadata>
	<trk>
		<name>Merel_kids_aangepast</name>
		<desc>Draft kinderroute langs eerste en laatste nestkastje</desc>
		<trkseg>
			<trkpt lat="49.89955999998851" lon="5.026700000000001"/>
			<trkpt lat="49.899539999988505" lon="5.02657"/>
			<trkpt lat="49.89949999998852" lon="5.02646"/>
			<trkpt lat="49.899569999988515" lon="5.026500000000001"/>
			<trkpt lat="49.89954999998851" lon="5.02616"/>
			<trkpt lat="49.89955999998851" lon="5.02606"/>
			<trkpt lat="49.89960999998852" lon="5.02579"/>
			<trkpt lat="49.8996599999885" lon="5.02562"/>
			<trkpt lat="49.900139999988525" lon="5.02605"/>
			<trkpt lat="49.90014999998852" lon="5.025990000000001"/>
			<trkpt lat="49.90040999998851" lon="5.025479999999999"/>
			<trkpt lat="49.90052999998851" lon="5.025219999999999"/>
			<trkpt lat="49.90060999998851" lon="5.024989999999999"/>
			<trkpt lat="49.900699999988504" lon="5.02461"/>
			<trkpt lat="49.90079999998852" lon="5.0243199999999995"/>
			<trkpt lat="49.90098999998852" lon="5.023990000000001"/>
			<trkpt lat="49.90107999998852" lon="5.023860000000001"/>
			<trkpt lat="49.90118999998851" lon="5.02376"/>
			<trkpt lat="49.901539999988515" lon="5.023560000000001"/>
			<trkpt lat="49.90172999998851" lon="5.023430000000001"/>
			<trkpt lat="49.90186999998852" lon="5.02332"/>
			<trkpt lat="49.90229999998852" lon="5.022900000000001"/>
			<trkpt lat="49.9026099999885" lon="5.022690000000001"/>
			<trkpt lat="49.90296999998852" lon="5.0225100000000005"/>
			<trkpt lat="49.903089999988524" lon="5.022470000000001"/>
			<trkpt lat="49.90345999998852" lon="5.02231"/>
			<trkpt lat="49.90366999998852" lon="5.02219"/>
			<trkpt lat="49.90375999998852" lon="5.022109999999999"/>
			<trkpt lat="49.903789999988525" lon="5.022070000000001"/>
			<trkpt lat="49.903829999988524" lon="5.02199"/>
			<trkpt lat="49.903849999988516" lon="5.021919999999999"/>
			<trkpt lat="49.903879999988526" lon="5.021739999999999"/>
			<trkpt lat="49.90388999998852" lon="5.02156"/>
			<trkpt lat="49.903899999988525" lon="5.021240000000001"/>
			<trkpt lat="49.903899999988525" lon="5.0203"/>
			<trkpt lat="49.903889999988515" lon="5.02023"/>
			<trkpt lat="49.90386999998852" lon="5.01956"/>
			<trkpt lat="49.903879999988526" lon="5.019350000000001"/>
			<trkpt lat="49.90388999998852" lon="5.019279999999999"/>
			<trkpt lat="49.90391999998852" lon="5.019190000000001"/>
			<trkpt lat="49.903969999988526" lon="5.019090000000001"/>
			<trkpt lat="49.90404999998851" lon="5.018980000000001"/>
			<trkpt lat="49.90408999998852" lon="5.018880000000001"/>
			<trkpt lat="49.90418999998853" lon="5.018479999999999"/>
			<trkpt lat="49.90426999998852" lon="5.0181000000000004"/>
			<trkpt lat="49.904379999988535" lon="5.017709999999999"/>
			<trkpt lat="49.90475999998853" lon="5.017000000000001"/>
			<trkpt lat="49.90498999998852" lon="5.0166"/>
			<trkpt lat="49.90521999998853" lon="5.01614"/>
			<trkpt lat="49.90535999998853" lon="5.015899999999999"/>
			<trkpt lat="49.905979999988524" lon="5.014959999999999"/>
			<trkpt lat="49.90672999998853" lon="5.01377"/>
			<trkpt lat="49.90690999998853" lon="5.01356"/>
			<trkpt lat="49.90704999998852" lon="5.013480000000001"/>
			<trkpt lat="49.90723999998852" lon="5.013400000000001"/>
			<trkpt lat="49.90759999998851" lon="5.0133"/>
			<trkpt lat="49.90817999998854" lon="5.013089999999999"/>
			<trkpt lat="49.90833999998853" lon="5.013"/>
			<trkpt lat="49.90853999998854" lon="5.01285"/>
			<trkpt lat="49.90862999998853" lon="5.012810000000001"/>
			<trkpt lat="49.90862999998853" lon="5.012800000000001"/>
			<trkpt lat="49.90862999999006" lon="5.012809999999279"/>
			<trkpt lat="49.908629999987966" lon="5.0127300000038675"/>
			<trkpt lat="49.90864999998543" lon="5.01262999999586"/>
			<trkpt lat="49.90868999999218" lon="5.01251000000694"/>
			<trkpt lat="49.90874999999131" lon="5.0123999999965205"/>
			<trkpt lat="49.90867999998497" lon="5.012059999997789"/>
			<trkpt lat="49.90869999998761" lon="5.011800000005268"/>
			<trkpt lat="49.908699999984584" lon="5.011609999995999"/>
			<trkpt lat="49.90872999999239" lon="5.0114300000032985"/>
			<trkpt lat="49.908809999984236" lon="5.011279999998742"/>
			<trkpt lat="49.90904999999017" lon="5.011379999994479"/>
			<trkpt lat="49.909139999985406" lon="5.011389999996911"/>
			<trkpt lat="49.90926999998837" lon="5.011260000005803"/>
			<trkpt lat="49.90939999999059" lon="5.011080000000912"/>
			<trkpt lat="49.90943999999261" lon="5.010989999997555"/>
			<trkpt lat="49.90947999998451" lon="5.010859999996344"/>
			<trkpt lat="49.90948999999059" lon="5.010789999999624"/>
			<trkpt lat="49.90947999998809" lon="5.0102199999954005"/>
			<trkpt lat="49.909449999987004" lon="5.009929999995901"/>
			<trkpt lat="49.909339999987814" lon="5.0093700000039245"/>
			<trkpt lat="49.909369999984825" lon="5.009369999999149"/>
			<trkpt lat="49.90930999997576" lon="5.009360000000072"/>
			<trkpt lat="49.90916999997509" lon="5.009370000002734"/>
			<trkpt lat="49.908879999979675" lon="5.009410000002126"/>
			<trkpt lat="49.908619999976935" lon="5.009489999996277"/>
			<trkpt lat="49.908429999976114" lon="5.009530000006628"/>
			<trkpt lat="49.90812999998007" lon="5.00949000000294"/>
			<trkpt lat="49.9076399999785" lon="5.0095099999984285"/>
			<trkpt lat="49.907129999980675" lon="5.00948999999708"/>
			<trkpt lat="49.90608999997658" lon="5.0095000000000764"/>
			<trkpt lat="49.905659999980756" lon="5.009490000002784"/>
			<trkpt lat="49.90431999997305" lon="5.009269999993559"/>
			<trkpt lat="49.90400999997467" lon="5.009279999995641"/>
			<trkpt lat="49.90389999998003" lon="5.009270000002831"/>
			<trkpt lat="49.90304999998007" lon="5.008950000000623"/>
			<trkpt lat="49.90277999997561" lon="5.008879999995428"/>
			<trkpt lat="49.90232999998026" lon="5.008840000000108"/>
			<trkpt lat="49.90175999997462" lon="5.00883999999933"/>
			<trkpt lat="49.90077999997614" lon="5.0089300000022705"/>
			<trkpt lat="49.90005999997339" lon="5.0089399999975885"/>
			<trkpt lat="49.89964999997931" lon="5.009019999993576"/>
			<trkpt lat="49.899649999981385" lon="5.009060000000883"/>
			<trkpt lat="49.899619999975165" lon="5.00844000000145"/>
			<trkpt lat="49.899609999977805" lon="5.007729999998554"/>
			<trkpt lat="49.899639999981055" lon="5.00744999999767"/>
			<trkpt lat="49.89971999997997" lon="5.0068700000024515"/>
			<trkpt lat="49.89983999998068" lon="5.006129999993905"/>
			<trkpt lat="49.89996999998108" lon="5.005200000000141"/>
			<trkpt lat="49.89998999997744" lon="5.005139999999657"/>
			<trkpt lat="49.90000999997627" lon="5.004739999999219"/>
			<trkpt lat="49.899999999975485" lon="5.004419999993103"/>
			<trkpt lat="49.89999999997953" lon="5.003989999996425"/>
			<trkpt lat="49.900019999977076" lon="5.003220000000885"/>
			<trkpt lat="49.900039999973544" lon="5.003020000001713"/>
			<trkpt lat="49.900029999976624" lon="5.003020000004944"/>
			<trkpt lat="49.89979999997702" lon="5.002909999997999"/>
			<trkpt lat="49.89970999997873" lon="5.002879999999516"/>
			<trkpt lat="49.8996299999763" lon="5.002869999993195"/>
			<trkpt lat="49.89945999997873" lon="5.002869999994516"/>
			<trkpt lat="49.89875999997619" lon="5.002940000002084"/>
			<trkpt lat="49.89861999997755" lon="5.002940000001879"/>
			<trkpt lat="49.898309999975986" lon="5.0029099999930775"/>
			<trkpt lat="49.898029999981055" lon="5.002840000005431"/>
			<trkpt lat="49.89780999998095" lon="5.002760000005531"/>
			<trkpt lat="49.89746999997807" lon="5.002599999993674"/>
			<trkpt lat="49.89746999998133" lon="5.002589999998123"/>
			<trkpt lat="49.89729999997578" lon="5.00250000000074"/>
			<trkpt lat="49.896529999981034" lon="5.001999999996228"/>
			<trkpt lat="49.89646999997888" lon="5.001939999998035"/>
			<trkpt lat="49.896529999981034" lon="5.001999999996228"/>
			<trkpt lat="49.89646999997452" lon="5.002010000005884"/>
			<trkpt lat="49.89593999998136" lon="5.002449999996224"/>
			<trkpt lat="49.89583999997342" lon="5.0024900000058325"/>
			<trkpt lat="49.89572999997318" lon="5.002470000000596"/>
			<trkpt lat="49.895539999974" lon="5.00246000000221"/>
			<trkpt lat="49.89543999997632" lon="5.00246999999439"/>
			<trkpt lat="49.89533999997681" lon="5.002550000006113"/>
			<trkpt lat="49.89528999997441" lon="5.002670000002067"/>
			<trkpt lat="49.895239999981165" lon="5.00303000000523"/>
			<trkpt lat="49.8951899999761" lon="5.003530000002934"/>
			<trkpt lat="49.89522999997633" lon="5.003829999993071"/>
			<trkpt lat="49.89560999997491" lon="5.004809999995364"/>
			<trkpt lat="49.8957399999739" lon="5.005160000003116"/>
			<trkpt lat="49.8958599999811" lon="5.0055199999982225"/>
			<trkpt lat="49.89583999997741" lon="5.005639999995198"/>
			<trkpt lat="49.89581999997867" lon="5.005679999993421"/>
			<trkpt lat="49.89575999997745" lon="5.005739999997527"/>
			<trkpt lat="49.895649999978446" lon="5.005759999993645"/>
			<trkpt lat="49.89554999997487" lon="5.005740000000368"/>
			<trkpt lat="49.89551999997579" lon="5.005740000006754"/>
			<trkpt lat="49.89544999997619" lon="5.005510000003252"/>
			<trkpt lat="49.89539999997539" lon="5.00540999999598"/>
			<trkpt lat="49.8953299999801" lon="5.005329999997575"/>
			<trkpt lat="49.89525999998095" lon="5.0052599999940215"/>
			<trkpt lat="49.895189999978285" lon="5.005260000004164"/>
			<trkpt lat="49.89512999997936" lon="5.0053099999951165"/>
			<trkpt lat="49.895059999981115" lon="5.005400000006737"/>
			<trkpt lat="49.89490999997829" lon="5.005829999994181"/>
			<trkpt lat="49.89469999998053" lon="5.006129999996766"/>
			<trkpt lat="49.894619999979895" lon="5.0062800000052095"/>
			<trkpt lat="49.894489999980316" lon="5.0066299999932635"/>
			<trkpt lat="49.894339999974186" lon="5.0069599999981245"/>
			<trkpt lat="49.894219999978716" lon="5.007309999997805"/>
			<trkpt lat="49.894119999974976" lon="5.007509999995974"/>
			<trkpt lat="49.89401999997689" lon="5.00756999999968"/>
			<trkpt lat="49.893929999976756" lon="5.007599999998327"/>
			<trkpt lat="49.89373999998016" lon="5.007860000001479"/>
			<trkpt lat="49.893619999975044" lon="5.008049999996034"/>
			<trkpt lat="49.893519999972575" lon="5.0081800000043755"/>
			<trkpt lat="49.89350999997887" lon="5.008199999999075"/>
			<trkpt lat="49.89355999997355" lon="5.008490000001946"/>
			<trkpt lat="49.89352999997607" lon="5.008539999997886"/>
			<trkpt lat="49.89348999998061" lon="5.008589999998352"/>
			<trkpt lat="49.893449999980454" lon="5.008709999997239"/>
			<trkpt lat="49.89337999997868" lon="5.008990000004032"/>
			<trkpt lat="49.893319999973464" lon="5.0090699999946215"/>
			<trkpt lat="49.89325999997889" lon="5.009099999996668"/>
			<trkpt lat="49.8932199999794" lon="5.009170000005633"/>
			<trkpt lat="49.89315999998146" lon="5.009670000000341"/>
			<trkpt lat="49.89312999998144" lon="5.009839999994615"/>
			<trkpt lat="49.89311999997718" lon="5.00983999999556"/>
			<trkpt lat="49.89309999997659" lon="5.009820000002136"/>
			<trkpt lat="49.89302999997859" lon="5.00980000000259"/>
			<trkpt lat="49.89241999997815" lon="5.009779999997651"/>
			<trkpt lat="49.892099999975876" lon="5.009789999996417"/>
			<trkpt lat="49.89191999998045" lon="5.00976000000077"/>
			<trkpt lat="49.8918899999742" lon="5.009740000006286"/>
			<trkpt lat="49.89181999998149" lon="5.009619999995151"/>
			<trkpt lat="49.89170999997742" lon="5.009350000001132"/>
			<trkpt lat="49.8915999999735" lon="5.009039999998564"/>
			<trkpt lat="49.891489999979456" lon="5.008790000006458"/>
			<trkpt lat="49.89147999997647" lon="5.008859999995146"/>
			<trkpt lat="49.89144999997361" lon="5.009430000006126"/>
			<trkpt lat="49.89134999997525" lon="5.01060000000293"/>
			<trkpt lat="49.89133999997996" lon="5.010909999999746"/>
			<trkpt lat="49.89131999997511" lon="5.011039999994099"/>
			<trkpt lat="49.89131999997335" lon="5.011119999997299"/>
			<trkpt lat="49.89124999997718" lon="5.0115799999965995"/>
			<trkpt lat="49.89119999997581" lon="5.0118500000035295"/>
			<trkpt lat="49.89109999997423" lon="5.012240000006294"/>
			<trkpt lat="49.890479999979675" lon="5.014109999995065"/>
			<trkpt lat="49.890479999974225" lon="5.014129999993752"/>
			<trkpt lat="49.89000999997452" lon="5.015669999999212"/>
			<trkpt lat="49.88966999997795" lon="5.016829999997117"/>
			<trkpt lat="49.889529999973945" lon="5.017269999998619"/>
			<trkpt lat="49.889379999977315" lon="5.017810000003127"/>
			<trkpt lat="49.889269999981074" lon="5.0182500000014105"/>
			<trkpt lat="49.88910999998117" lon="5.018980000006799"/>
			<trkpt lat="49.88902999997721" lon="5.019509999994156"/>
			<trkpt lat="49.888989999974015" lon="5.019869999994327"/>
			<trkpt lat="49.88895999997566" lon="5.020249999994022"/>
			<trkpt lat="49.888939999975086" lon="5.021389999994469"/>
			<trkpt lat="49.88894999997597" lon="5.0219899999971345"/>
			<trkpt lat="49.88897999997626" lon="5.022729999999732"/>
			<trkpt lat="49.8889799999807" lon="5.022899999999527"/>
			<trkpt lat="49.88906999997978" lon="5.023240000006892"/>
			<trkpt lat="49.88917999997257" lon="5.024080000000824"/>
			<trkpt lat="49.88930999998021" lon="5.024950000003728"/>
			<trkpt lat="49.88935999998042" lon="5.025230000000306"/>
			<trkpt lat="49.889719999977615" lon="5.026579999993818"/>
			<trkpt lat="49.890079999976166" lon="5.02776999999338"/>
			<trkpt lat="49.89039999997716" lon="5.028909999996451"/>
			<trkpt lat="49.89060999997732" lon="5.029619999997206"/>
			<trkpt lat="49.890749999979576" lon="5.029959999996959"/>
			<trkpt lat="49.891049999978705" lon="5.030749999996367"/>
			<trkpt lat="49.89121999997606" lon="5.031160000005453"/>
			<trkpt lat="49.89181999997556" lon="5.032749999997692"/>
			<trkpt lat="49.891899999978655" lon="5.0329299999977275"/>
			<trkpt lat="49.8919199999811" lon="5.032999999993334"/>
			<trkpt lat="49.89238999997551" lon="5.034190000000555"/>
			<trkpt lat="49.89247999997964" lon="5.0344399999947775"/>
			<trkpt lat="49.89261999997862" lon="5.034770000004341"/>
			<trkpt lat="49.89297999998098" lon="5.035750000002643"/>
			<trkpt lat="49.89326999997679" lon="5.036630000005613"/>
			<trkpt lat="49.893519999977116" lon="5.037319999994605"/>
			<trkpt lat="49.89373999997372" lon="5.037860000004118"/>
			<trkpt lat="49.89380999997812" lon="5.038040000001107"/>
			<trkpt lat="49.89382999997734" lon="5.03797000000378"/>
			<trkpt lat="49.89386999997846" lon="5.0379099999942945"/>
			<trkpt lat="49.89412999997453" lon="5.037689999993666"/>
			<trkpt lat="49.89429999997665" lon="5.037629999996932"/>
			<trkpt lat="49.894559999981105" lon="5.037560000000422"/>
			<trkpt lat="49.89486999997305" lon="5.037410000004838"/>
			<trkpt lat="49.89546999997942" lon="5.037070000001374"/>
			<trkpt lat="49.8961699999779" lon="5.036760000003962"/>
			<trkpt lat="49.89628999997875" lon="5.036679999995173"/>
			<trkpt lat="49.89637999997667" lon="5.03661000000426"/>
			<trkpt lat="49.89662999997704" lon="5.036369999996206"/>
			<trkpt lat="49.89677999997503" lon="5.036209999993848"/>
			<trkpt lat="49.89718999997473" lon="5.035730000001202"/>
			<trkpt lat="49.897879999974236" lon="5.034960000004206"/>
			<trkpt lat="49.897989999980105" lon="5.034809999996904"/>
			<trkpt lat="49.89807999997784" lon="5.034659999994462"/>
			<trkpt lat="49.89816999998138" lon="5.034480000006387"/>
			<trkpt lat="49.89839999997681" lon="5.033969999996861"/>
			<trkpt lat="49.89868999997803" lon="5.033399999996216"/>
			<trkpt lat="49.898759999979085" lon="5.0332100000047495"/>
			<trkpt lat="49.898769999976" lon="5.0332100000045035"/>
			<trkpt lat="49.89888999997421" lon="5.032820000001926"/>
			<trkpt lat="49.89905999997763" lon="5.032150000003906"/>
			<trkpt lat="49.89913999997469" lon="5.0315399999937105"/>
			<trkpt lat="49.89914999998147" lon="5.031169999999087"/>
			<trkpt lat="49.899119999974786" lon="5.03095000000285"/>
			<trkpt lat="49.899099999979924" lon="5.030889999997028"/>
			<trkpt lat="49.89907999997489" lon="5.0307699999956474"/>
			<trkpt lat="49.898899999979605" lon="5.029959999997144"/>
			<trkpt lat="49.8988299999746" lon="5.029679999998078"/>
			<trkpt lat="49.89871999997765" lon="5.029139999996333"/>
			<trkpt lat="49.898689999979254" lon="5.029049999995075"/>
			<trkpt lat="49.89856999997466" lon="5.028550000006365"/>
			<trkpt lat="49.898529999978685" lon="5.02840999999827"/>
			<trkpt lat="49.89847999998086" lon="5.028300000003861"/>
			<trkpt lat="49.898459999976566" lon="5.028219999996331"/>
			<trkpt lat="49.8984599999745" lon="5.028230000006106"/>
			<trkpt lat="49.898479999974626" lon="5.028150000002963"/>
			<trkpt lat="49.898629999976144" lon="5.027890000000579"/>
			<trkpt lat="49.89883999997718" lon="5.027649999996264"/>
			<trkpt lat="49.898879999973744" lon="5.027649999993578"/>
			<trkpt lat="49.89896999998033" lon="5.027609999995848"/>
			<trkpt lat="49.898999999977825" lon="5.027570000000821"/>
			<trkpt lat="49.8990299999776" lon="5.027500000004126"/>
			<trkpt lat="49.899069999973605" lon="5.027349999993584"/>
			<trkpt lat="49.89906999997885" lon="5.027320000003515"/>
			<trkpt lat="49.899079999980636" lon="5.027310000001418"/>
			<trkpt lat="49.899109999975295" lon="5.02706000000244"/>
			<trkpt lat="49.89909999997787" lon="5.027010000005248"/>
			<trkpt lat="49.89909999997378" lon="5.026950000003878"/>
			<trkpt lat="49.89915999998853" lon="5.02694"/>
			<trkpt lat="49.8994899999885" lon="5.026950000000001"/>
			<trkpt lat="49.89951999998851" lon="5.026840000000001"/>
			<extensions>
				<tmv:trkseg_extension>
					<tmv:trkseg_fixedpoint_indexes>
						<tmv:num>0</tmv:num>
						<tmv:num>6</tmv:num>
						<tmv:num>60</tmv:num>
						<tmv:num>63</tmv:num>
						<tmv:num>65</tmv:num>
						<tmv:num>81</tmv:num>
						<tmv:num>102</tmv:num>
						<tmv:num>115</tmv:num>
						<tmv:num>129</tmv:num>
						<tmv:num>149</tmv:num>
						<tmv:num>169</tmv:num>
						<tmv:num>172</tmv:num>
						<tmv:num>181</tmv:num>
						<tmv:num>192</tmv:num>
						<tmv:num>236</tmv:num>
						<tmv:num>273</tmv:num>
						<tmv:num>288</tmv:num>
						<tmv:num>290</tmv:num>
					</tmv:trkseg_fixedpoint_indexes>
				</tmv:trkseg_extension>
			</extensions>
		</trkseg>
	</trk>
</gpx>
